ONEWEB-0312             
1 49098U 21075Z   26169.78156991 -.00000032  00000+0 -11475-3 0  9992
2 49098  87.9130   5.5563 0002205  90.5711 269.5673 13.17653580233810
ONEWEB-0313             
1 49099U 21075AA  26169.78648635  .00000052  00000+0  99611-4 0  9993
2 49099  87.9127   5.5607 0002003  86.7824 273.3536 13.17649293233800
ONEWEB-0314             
1 49100U 21075AB  26169.82882139  .00000060  00000+0  12178-3 0  9991
2 49100  87.9141   5.5251 0002268  90.8116 269.3275 13.17648850233787
ONEWEB-0315             
1 49101U 21075AC  26169.73324778  .00000331  00000+0  88558-3 0  9998
2 49101  87.8949 350.3367 0002046  81.7963 278.3398 13.12443065235374
ONEWEB-0316             
1 49102U 21075AD  26169.75221961  .00000165  00000+0  38486-3 0  9991
2 49102  87.9166 335.1444 0001923  92.0184 268.1168 13.18688051237418
ONEWEB-0317             
1 49103U 21075AE  26169.73663704  .00000175  00000+0  45082-3 0  9996
2 49103  87.8950 350.3600 0001610 114.6997 245.4300 13.12442778235397
ONEWEB-0318             
1 49104U 21075AF  26169.74885394  .00000023  00000+0  25443-4 0  9991
2 49104  87.9172 335.1467 0001996  86.7821 273.3540 13.18686085237372
ONEWEB-0319             
1 49105U 21075AG  26169.84399935  .00000026  00000+0  34917-4 0  9993
2 49105  87.9133   5.5382 0002162  75.7361 284.4011 13.17649410233829
ONEWEB-0323             
1 49106U 21075AH  26169.79423953  .00000435  00000+0  11736-2 0  9992
2 49106  87.8950 350.3296 0002283  81.3936 278.7451 13.12445055234768
ONEWEB-0329             
1 49107U 21075AJ  26169.77650176  .00000047  00000+0  88202-4 0  9993
2 49107  87.9133   5.5525 0002032  89.0496 271.0868 13.17649655233792
ONEWEB-0330             
1 49108U 21075AK  26169.04065967  .00023926  00000+0  61248-1 0  9991
2 49108  87.9135   5.7192 0002036  91.8176 268.3189 13.17848881233738
ONEWEB-0292             
1 49186U 21083A   26168.92734130 -.00000026  00000+0 -10485-3 0  9994
2 49186  87.8952 320.0907 0001945  91.8881 268.2470 13.13471548231028
ONEWEB-0303             
1 49187U 21083B   26169.74547772  .00000026  00000+0  33652-4 0  9990
2 49187  87.9168 335.1459 0001960  89.5447 270.5909 13.18686966230183
ONEWEB-0306             
1 49188U 21083C   26169.73535597  .00000034  00000+0  53640-4 0  9990
2 49188  87.9171 335.1360 0001780  99.8728 260.2605 13.18687278230226
ONEWEB-0307             
1 49189U 21083D   26169.68318398 -.00000145  00000+0 -43322-3 0  9993
2 49189  87.8955 319.9374 0001955  94.4092 265.7261 13.13471181231127
ONEWEB-0320             
1 49190U 21083E   26169.75558774  .00000041  00000+0  71882-4 0  9993
2 49190  87.9162 335.1499 0001828  94.5014 265.6327 13.18686333230181
ONEWEB-0321             
1 49191U 21083F   26169.71618214  .00000105  00000+0  22603-3 0  9993
2 49191  87.9197 274.1301 0001865 108.0267 252.1069 13.20772425237032
ONEWEB-0322             
1 49192U 21083G   26169.83128981 -.00000326  00000+0 -92749-3 0  9999
2 49192  87.8953 319.9083 0001433 104.0833 256.0456 13.13468136231134
ONEWEB-0324             
1 49193U 21083H   26169.72861257  .00000026  00000+0  32072-4 0  9997
2 49193  87.9173 335.1428 0001991  97.5278 262.6080 13.18684882230207
ONEWEB-0325             
1 49194U 21083J   26169.73198735  .00000060  00000+0  11829-3 0  9997
2 49194  87.9162 335.1504 0001816  91.3771 268.7569 13.18686304230218
ONEWEB-0326             
1 49195U 21083K   26169.74730338  .00000053  00000+0  10256-3 0  9995
2 49195  87.9171 335.1451 0001971  85.8005 274.3352 13.18685679230206
ONEWEB-0327             
1 49196U 21083L   26169.74702343  .00000034  00000+0  52317-4 0  9995
2 49196  87.9164 335.1494 0001902  81.0303 279.1045 13.18685080230229
ONEWEB-0328             
1 49197U 21083M   26169.36408255 -.00000212  00000+0 -61498-3 0  9998
2 49197  87.8963 319.9741 0001957  99.2961 260.8389 13.13469845231056
ONEWEB-0331             
1 49198U 21083N   26169.74041235 -.00000014  00000+0 -67432-4 0  9997
2 49198  87.9172 335.1403 0002086  86.0934 274.0436 13.18686689230212
ONEWEB-0333             
1 49199U 21083P   26169.66371367 -.00000110  00000+0 -33710-3 0  9999
2 49199  87.8954 319.9408 0001831  95.5225 264.6113 13.13469884231107
ONEWEB-0334             
1 49200U 21083Q   26169.73158464  .00000060  00000+0  11466-3 0  9997
2 49200  87.9194 274.1377 0001474 129.9033 230.2230 13.21260608236999
ONEWEB-0335             
1 49201U 21083R   26169.65863662  .00000030  00000+0  48163-4 0  9994
2 49201  87.8956 319.9389 0001981  93.1565 266.9791 13.13470715231111
ONEWEB-0336             
1 49202U 21083S   26169.70603513  .00000346  00000+0  91192-3 0  9997
2 49202  87.8953 319.9251 0002243  92.1869 267.9517 13.13471440231118
ONEWEB-0337             
1 49203U 21083T   26169.71606116  .00000341  00000+0  89946-3 0  9990
2 49203  87.8953 319.9291 0002034  98.0491 262.0869 13.13470567231112
ONEWEB-0338             
1 49204U 21083U   26169.70775338  .00000046  00000+0  82411-4 0  9996
2 49204  87.9186 274.1457 0001713 105.3250 254.8073 13.20773651237015
ONEWEB-0339             
1 49205U 21083V   26169.64847831  .00000256  00000+0  66626-3 0  9990
2 49205  87.8953 319.9350 0001681 105.2099 254.9216 13.13470214231083
