OBJECT_NAME,OBJECT_ID,EPOCH,MEAN_MOTION,ECCENTRICITY,INCLINATION,RA_OF_ASC_NODE,ARG_OF_PERICENTER,MEAN_ANOMALY,EPHEMERIS_TYPE,CLASSIFICATION_TYPE,NORAD_CAT_ID,ELEMENT_SET_NO,REV_AT_EPOCH,BSTAR,MEAN_MOTION_DOT,MEAN_MOTION_DDOT
ONEWEB-0312,2021-075Z,2026-06-18T18:45:27.640224,13.17653580,.0002205,87.9130,5.5563,90.5711,269.5673,0,U,49098,999,23381,-.11475E-3,-.32E-6,0
ONEWEB-0313,2021-075AA,2026-06-18T18:52:32.420640,13.17649293,.0002003,87.9127,5.5607,86.7824,273.3536,0,U,49099,999,23380,.99611E-4,.52E-6,0
ONEWEB-0314,2021-075AB,2026-06-18T19:53:30.168096,13.17648850,.0002268,87.9141,5.5251,90.8116,269.3275,0,U,49100,999,23378,.12178E-3,.6E-6,0
ONEWEB-0315,2021-075AC,2026-06-18T17:35:52.608192,13.12443065,.0002046,87.8949,350.3367,81.7963,278.3398,0,U,49101,999,23537,.88558E-3,.331E-5,0
ONEWEB-0316,2021-075AD,2026-06-18T18:03:11.774304,13.18688051,.0001923,87.9166,335.1444,92.0184,268.1168,0,U,49102,999,23741,.38486E-3,.165E-5,0
ONEWEB-0317,2021-075AE,2026-06-18T17:40:45.440256,13.12442778,.000161,87.8950,350.3600,114.6997,245.4300,0,U,49103,999,23539,.45082E-3,.175E-5,0
ONEWEB-0318,2021-075AF,2026-06-18T17:58:20.980416,13.18686085,.0001996,87.9172,335.1467,86.7821,273.3540,0,U,49104,999,23737,.25443E-4,.23E-6,0
ONEWEB-0319,2021-075AG,2026-06-18T20:15:21.543840,13.17649410,.0002162,87.9133,5.5382,75.7361,284.4011,0,U,49105,999,23382,.34917E-4,.26E-6,0
ONEWEB-0323,2021-075AH,2026-06-18T19:03:42.295392,13.12445055,.0002283,87.8950,350.3296,81.3936,278.7451,0,U,49106,999,23476,.11736E-2,.435E-5,0
ONEWEB-0329,2021-075AJ,2026-06-18T18:38:09.752064,13.17649655,.0002032,87.9133,5.5525,89.0496,271.0868,0,U,49107,999,23379,.88202E-4,.47E-6,0
ONEWEB-0330,2021-075AK,2026-06-18T00:58:32.995488,13.17848881,.00020367,87.9135,5.7192,91.8176,268.3189,0,U,49108,999,23373,.61247942E-1,.23926E-3,0
ONEWEB-0292,2021-083A,2026-06-17T22:15:22.288320,13.13471548,.00019456,87.8952,320.0907,91.8881,268.2470,0,U,49186,999,23102,-.10484959E-3,-.26E-6,0
ONEWEB-0303,2021-083B,2026-06-18T17:53:29.275008,13.18686966,.000196,87.9168,335.1459,89.5447,270.5909,0,U,49187,999,23018,.33652E-4,.26E-6,0
ONEWEB-0306,2021-083C,2026-06-18T17:38:54.755808,13.18687278,.000178,87.9171,335.1360,99.8728,260.2605,0,U,49188,999,23022,.5364E-4,.34E-6,0
ONEWEB-0307,2021-083D,2026-06-18T16:23:47.095872,13.13471181,.0001955,87.8955,319.9374,94.4092,265.7261,0,U,49189,999,23112,-.43322E-3,-.145E-5,0
ONEWEB-0320,2021-083E,2026-06-18T18:08:02.780736,13.18686333,.0001828,87.9162,335.1499,94.5014,265.6327,0,U,49190,999,23018,.71882E-4,.41E-6,0
ONEWEB-0321,2021-083F,2026-06-18T17:11:18.136896,13.20772425,.0001865,87.9197,274.1301,108.0267,252.1069,0,U,49191,999,23703,.22603E-3,.105E-5,0
ONEWEB-0322,2021-083G,2026-06-18T19:57:03.439584,13.13468136,.0001433,87.8953,319.9083,104.0833,256.0456,0,U,49192,999,23113,-.92749E-3,-.326E-5,0
ONEWEB-0324,2021-083H,2026-06-18T17:29:12.126048,13.18684882,.0001991,87.9173,335.1428,97.5278,262.6080,0,U,49193,999,23020,.32072E-4,.26E-6,0
ONEWEB-0325,2021-083J,2026-06-18T17:34:03.707040,13.18686304,.0001816,87.9162,335.1504,91.3771,268.7569,0,U,49194,999,23021,.11829E-3,.6E-6,0
ONEWEB-0326,2021-083K,2026-06-18T17:56:07.012032,13.18685679,.0001971,87.9171,335.1451,85.8005,274.3352,0,U,49195,999,23020,.10256E-3,.53E-6,0
ONEWEB-0327,2021-083L,2026-06-18T17:55:42.824352,13.18685080,.0001902,87.9164,335.1494,81.0303,279.1045,0,U,49196,999,23022,.52317E-4,.34E-6,0
ONEWEB-0328,2021-083M,2026-06-18T08:44:16.732320,13.13469845,.0001957,87.8963,319.9741,99.2961,260.8389,0,U,49197,999,23105,-.61498E-3,-.212E-5,0
ONEWEB-0331,2021-083N,2026-06-18T17:46:11.627040,13.18686689,.0002086,87.9172,335.1403,86.0934,274.0436,0,U,49198,999,23021,-.67432E-4,-.14E-6,0
ONEWEB-0333,2021-083P,2026-06-18T15:55:44.861088,13.13469884,.0001831,87.8954,319.9408,95.5225,264.6113,0,U,49199,999,23110,-.3371E-3,-.11E-5,0
ONEWEB-0334,2021-083Q,2026-06-18T17:33:28.912896,13.21260608,.0001474,87.9194,274.1377,129.9033,230.2230,0,U,49200,999,23699,.11466E-3,.6E-6,0
ONEWEB-0335,2021-083R,2026-06-18T15:48:26.203968,13.13470715,.0001981,87.8956,319.9389,93.1565,266.9791,0,U,49201,999,23111,.48163E-4,.3E-6,0
ONEWEB-0336,2021-083S,2026-06-18T16:56:41.435232,13.13471440,.0002243,87.8953,319.9251,92.1869,267.9517,0,U,49202,999,23111,.91192E-3,.346E-5,0
ONEWEB-0337,2021-083T,2026-06-18T17:11:07.684224,13.13470567,.0002034,87.8953,319.9291,98.0491,262.0869,0,U,49203,999,23111,.89946E-3,.341E-5,0
ONEWEB-0338,2021-083U,2026-06-18T16:59:09.892032,13.20773651,.0001713,87.9186,274.1457,105.3250,254.8073,0,U,49204,999,23701,.82411E-4,.46E-6,0
ONEWEB-0339,2021-083V,2026-06-18T15:33:48.525984,13.13470214,.0001681,87.8953,319.9350,105.2099,254.9216,0,U,49205,999,23108,.66626E-3,.256E-5,0
